{"type": "FeatureCollection", "features": [ {"type": "Feature", "properties": {"norad_id": 41335, "name": "SENTINEL-3A", "group": "resource", "lat": -75.82548295378967, "lon": 92.09630389905098, "alt_km": 810.6371980332888, "timestamp": "2025-12-16T03:53:26.716207+00:00", "meta": {"OBJECT_NAME": "SENTINEL-3A", "OBJECT_ID": "2016-011A", "EPOCH": "2025-12-15T08:03:42.430464", "MEAN_MOTION": 14.26731706, "ECCENTRICITY": 9.363e-05, "INCLINATION": 98.6313, "RA_OF_ASC_NODE": 54.3117, "ARG_OF_PERICENTER": 91.5195, "MEAN_ANOMALY": 268.6092, "EPHEMERIS_TYPE": 0, "CLASSIFICATION_TYPE": "U", "NORAD_CAT_ID": 41335, "ELEMENT_SET_NO": 999, "REV_AT_EPOCH": 51184, "BSTAR": 7.5785088e-05, "MEAN_MOTION_DOT": 1.4e-06, "MEAN_MOTION_DDOT": 0}, "tle": {"line1": "1 41335U 16011A   25349.33590776  .00000140  00000+0  75785-4 0  9998", "line2": "2 41335  98.6313  54.3117 0000936  91.5195 268.6092 14.26731706511846"}}, "geometry": {"type": "Point", "coordinates": [92.09630389905098, -75.82548295378967]}}, {"type": "Feature", "properties": {"norad_id": 41556, "name": "ZIYUAN 3-2 (ZY 3-2)", "group": "resource", "lat": 60.271248962528304, "lon": -102.5627479547581, "alt_km": 499.3112681146431, "timestamp": "2025-12-16T03:53:26.716218+00:00", "meta": {"OBJECT_NAME": "ZIYUAN 3-2 (ZY 3-2)", "OBJECT_ID": "2016-033A", "EPOCH": "2025-12-15T08:25:44.616576", "MEAN_MOTION": 15.21544526, "ECCENTRICITY": 0.00126227, "INCLINATION": 97.4045, "RA_OF_ASC_NODE": 63.4759, "ARG_OF_PERICENTER": 238.9431, "MEAN_ANOMALY": 121.0567, "EPHEMERIS_TYPE": 0, "CLASSIFICATION_TYPE": "U", "NORAD_CAT_ID": 41556, "ELEMENT_SET_NO": 999, "REV_AT_EPOCH": 53003, "BSTAR": 0.00026249288, "MEAN_MOTION_DOT": 5.857e-05, "MEAN_MOTION_DDOT": 0}, "tle": {"line1": "1 41556U 16033A   25349.35121084  .00005857  00000+0  26249-3 0  9991", "line2": "2 41556  97.4045  63.4759 0012622 238.9431 121.0567 15.21544526530037"}}, "geometry": {"type": "Point", "coordinates": [-102.5627479547581, 60.271248962528304]}}, {"type": "Feature", "properties": {"norad_id": 41599, "name": "CARTOSAT-2C", "group": "resource", "lat": 34.67726950464379, "lon": 42.164328936053764, "alt_km": 498.7482819593997, "timestamp": "2025-12-16T03:53:26.716229+00:00", "meta": {"OBJECT_NAME": "CARTOSAT-2C", "OBJECT_ID": "2016-040A", "EPOCH": "2025-12-15T21:24:50.475168", "MEAN_MOTION": 15.19144345, "ECCENTRICITY": 0.0011364, "INCLINATION": 97.4769, "RA_OF_ASC_NODE": 47.1105, "ARG_OF_PERICENTER": 53.4968, "MEAN_ANOMALY": 306.7312, "EPHEMERIS_TYPE": 0, "CLASSIFICATION_TYPE": "U", "NORAD_CAT_ID": 41599, "ELEMENT_SET_NO": 999, "REV_AT_EPOCH": 52588, "BSTAR": 0.00017422, "MEAN_MOTION_DOT": 3.597e-05, "MEAN_MOTION_DDOT": 0}, "tle": {"line1": "1 41599U 16040A   25349.89225087  .00003597  00000+0  17422-3 0  9995", "line2": "2 41599  97.4769  47.1105 0011364  53.4968 306.7312 15.19144345525887"}}, "geometry": {"type": "Point", "coordinates": [42.164328936053764, 34.67726950464379]}}, {"type": "Feature", "properties": {"norad_id": 41601, "name": "SKYSAT-C1", "group": "resource", "lat": -72.9623167935276, "lon": -176.59207511077022, "alt_km": 475.74310376716767, "timestamp": "2025-12-16T03:53:26.716240+00:00", "meta": {"OBJECT_NAME": "SKYSAT-C1", "OBJECT_ID": "2016-040C", "EPOCH": "2025-12-15T01:42:46.396512", "MEAN_MOTION": 15.32637767, "ECCENTRICITY": 0.00021085, "INCLINATION": 96.9828, "RA_OF_ASC_NODE": 25.9538, "ARG_OF_PERICENTER": 8.6555, "MEAN_ANOMALY": 351.4724, "EPHEMERIS_TYPE": 0, "CLASSIFICATION_TYPE": "U", "NORAD_CAT_ID": 41601, "ELEMENT_SET_NO": 999, "REV_AT_EPOCH": 52963, "BSTAR": 0.00021278585, "MEAN_MOTION_DOT": 6.635e-05, "MEAN_MOTION_DDOT": 0}, "tle": {"line1": "1 41601U 16040C   25349.07137033  .00006635  00000+0  21279-3 0  9993", "line2": "2 41601  96.9828  25.9538 0002108   8.6555 351.4724 15.32637767529636"}}, "geometry": {"type": "Point", "coordinates": [-176.59207511077022, -72.9623167935276]}}, {"type": "Feature", "properties": {"norad_id": 41603, "name": "LAPAN-A3", "group": "resource", "lat": 24.964869522277795, "lon": -15.752735369348551, "alt_km": 467.7125923339345, "timestamp": "2025-12-16T03:53:26.716250+00:00", "meta": {"OBJECT_NAME": "LAPAN-A3", "OBJECT_ID": "2016-040E", "EPOCH": "2025-12-15T05:49:44.061312", "MEAN_MOTION": 15.31574336, "ECCENTRICITY": 0.00093706, "INCLINATION": 97.1428, "RA_OF_ASC_NODE": 346.7083, "ARG_OF_PERICENTER": 324.0598, "MEAN_ANOMALY": 36.0013, "EPHEMERIS_TYPE": 0, "CLASSIFICATION_TYPE": "U", "NORAD_CAT_ID": 41603, "ELEMENT_SET_NO": 999, "REV_AT_EPOCH": 52664, "BSTAR": 0.00011613473, "MEAN_MOTION_DOT": 3.47e-05, "MEAN_MOTION_DDOT": 0}, "tle": {"line1": "1 41603U 16040E   25349.24287108  .00003470  00000+0  11613-3 0  9998", "line2": "2 41603  97.1428 346.7083 0009370 324.0598  36.0013 15.31574336526642"}}, "geometry": {"type": "Point", "coordinates": [-15.752735369348551, 24.964869522277795]}}, {"type": "Feature", "properties": {"norad_id": 41604, "name": "BIROS", "group": "resource", "lat": -32.10784562298938, "lon": -162.72989085684026, "alt_km": 304.98864690582286, "timestamp": "2025-12-16T03:53:26.716260+00:00", "meta": {"OBJECT_NAME": "BIROS", "OBJECT_ID": "2016-040F", "EPOCH": "2025-12-15T01:20:12.221664", "MEAN_MOTION": 15.90659584, "ECCENTRICITY": 0.00036552, "INCLINATION": 97.068, "RA_OF_ASC_NODE": 20.5828, "ARG_OF_PERICENTER": 143.3286, "MEAN_ANOMALY": 216.8239, "EPHEMERIS_TYPE": 0, "CLASSIFICATION_TYPE": "U", "NORAD_CAT_ID": 41604, "ELEMENT_SET_NO": 999, "REV_AT_EPOCH": 52909, "BSTAR": 0.00047663709, "MEAN_MOTION_DOT": 0.00145956, "MEAN_MOTION_DDOT": 9.714412e-06}, "tle": {"line1": "1 41604U 16040F   25349.05569701  .00145956  97144-5  47664-3 0  9992", "line2": "2 41604  97.0680  20.5828 0003655 143.3286 216.8239 15.90659584529096"}}, "geometry": {"type": "Point", "coordinates": [-162.72989085684026, -32.10784562298938]}}, {"type": "Feature", "properties": {"norad_id": 41727, "name": "GAOFEN-3", "group": "resource", "lat": 35.9260940580613, "lon": -178.15395399796688, "alt_km": 748.6260191391921, "timestamp": "2025-12-16T03:53:26.716271+00:00", "meta": {"OBJECT_NAME": "GAOFEN-3", "OBJECT_ID": "2016-049A", "EPOCH": "2025-12-15T07:14:48.085152", "MEAN_MOTION": 14.42214351, "ECCENTRICITY": 0.00013611, "INCLINATION": 98.4043, "RA_OF_ASC_NODE": 354.8496, "ARG_OF_PERICENTER": 60.1676, "MEAN_ANOMALY": 299.9649, "EPHEMERIS_TYPE": 0, "CLASSIFICATION_TYPE": "U", "NORAD_CAT_ID": 41727, "ELEMENT_SET_NO": 999, "REV_AT_EPOCH": 49214, "BSTAR": 2.9617431e-05, "MEAN_MOTION_DOT": 5.4e-07, "MEAN_MOTION_DDOT": 0}, "tle": {"line1": "1 41727U 16049A   25349.30194543  .00000054  00000+0  29617-4 0  9990", "line2": "2 41727  98.4043 354.8496 0001361  60.1676 299.9649 14.42214351492142"}}, "geometry": {"type": "Point", "coordinates": [-178.15395399796688, 35.9260940580613]}}, {"type": "Feature", "properties": {"norad_id": 41771, "name": "SKYSAT-C4", "group": "resource", "lat": -50.88174784684448, "lon": 23.795310877798308, "alt_km": 447.3699129057695, "timestamp": "2025-12-16T03:53:26.716281+00:00", "meta": {"OBJECT_NAME": "SKYSAT-C4", "OBJECT_ID": "2016-058B", "EPOCH": "2025-12-15T07:52:15.572064", "MEAN_MOTION": 15.42330027, "ECCENTRICITY": 0.00017432, "INCLINATION": 96.9376, "RA_OF_ASC_NODE": 14.3899, "ARG_OF_PERICENTER": 133.027, "MEAN_ANOMALY": 227.1125, "EPHEMERIS_TYPE": 0, "CLASSIFICATION_TYPE": "U", "NORAD_CAT_ID": 41771, "ELEMENT_SET_NO": 999, "REV_AT_EPOCH": 51707, "BSTAR": 0.00025732437, "MEAN_MOTION_DOT": 0.00011013, "MEAN_MOTION_DDOT": 0}, "tle": {"line1": "1 41771U 16058B   25349.32795801  .00011013  00000+0  25732-3 0  9995", "line2": "2 41771  96.9376  14.3899 0001743 133.0270 227.1125 15.42330027517074"}}, "geometry": {"type": "Point", "coordinates": [23.795310877798308, -50.88174784684448]}}, {"type": "Feature", "properties": {"norad_id": 41772, "name": "SKYSAT-C5", "group": "resource", "lat": 54.56715594671473, "lon": -136.17240123695672, "alt_km": 459.63669604005736, "timestamp": "2025-12-16T03:53:26.716292+00:00", "meta": {"OBJECT_NAME": "SKYSAT-C5", "OBJECT_ID": "2016-058C", "EPOCH": "2025-12-15T02:18:12.349728", "MEAN_MOTION": 15.3421872, "ECCENTRICITY": 0.00028005, "INCLINATION": 97.0769, "RA_OF_ASC_NODE": 32.7498, "ARG_OF_PERICENTER": 272.3559, "MEAN_ANOMALY": 87.7364, "EPHEMERIS_TYPE": 0, "CLASSIFICATION_TYPE": "U", "NORAD_CAT_ID": 41772, "ELEMENT_SET_NO": 999, "REV_AT_EPOCH": 51552, "BSTAR": 0.00020064542, "MEAN_MOTION_DOT": 6.571e-05, "MEAN_MOTION_DDOT": 0}, "tle": {"line1": "1 41772U 16058C   25349.09597627  .00006571  00000+0  20065-3 0  9993", "line2": "2 41772  97.0769  32.7498 0002800 272.3559  87.7364 15.34218720515523"}}, "geometry": {"type": "Point", "coordinates": [-136.17240123695672, 54.56715594671473]}}, {"type": "Feature", "properties": {"norad_id": 41773, "name": "SKYSAT-C2", "group": "resource", "lat": 7.7516636591049295, "lon": -164.49211877035947, "alt_km": 458.2831061952238, "timestamp": "2025-12-16T03:53:26.716302+00:00", "meta": {"OBJECT_NAME": "SKYSAT-C2", "OBJECT_ID": "2016-058D", "EPOCH": "2025-12-15T08:23:56.191488", "MEAN_MOTION": 15.37335005, "ECCENTRICITY": 0.00039673, "INCLINATION": 97.0366, "RA_OF_ASC_NODE": 13.7665, "ARG_OF_PERICENTER": 27.9981, "MEAN_ANOMALY": 332.1477, "EPHEMERIS_TYPE": 0, "CLASSIFICATION_TYPE": "U", "NORAD_CAT_ID": 41773, "ELEMENT_SET_NO": 999, "REV_AT_EPOCH": 51676, "BSTAR": 0.00024326414, "MEAN_MOTION_DOT": 8.826e-05, "MEAN_MOTION_DDOT": 0}, "tle": {"line1": "1 41773U 16058D   25349.34995592  .00008826  00000+0  24326-3 0  9994", "line2": "2 41773  97.0366  13.7665 0003967  27.9981 332.1477 15.37335005516768"}}, "geometry": {"type": "Point", "coordinates": [-164.49211877035947, 7.7516636591049295]}}]}